{"type": "FeatureCollection", "features": [ {"type": "Feature", "properties": {"norad_id": 41785, "name": "ALSAT 1B", "group": "resource", "lat": 27.121663937183026, "lon": 4.792336152360876, "alt_km": 648.067546961186, "timestamp": "2025-12-23T11:34:47.839390+00:00", "meta": {"OBJECT_NAME": "ALSAT 1B", "OBJECT_ID": "2016-059C", "EPOCH": "2025-12-23T04:55:50.600064", "MEAN_MOTION": 14.7208579, "ECCENTRICITY": 0.0010775, "INCLINATION": 97.7803, "RA_OF_ASC_NODE": 8.543, "ARG_OF_PERICENTER": 74.0306, "MEAN_ANOMALY": 286.2089, "EPHEMERIS_TYPE": 0, "CLASSIFICATION_TYPE": "U", "NORAD_CAT_ID": 41785, "ELEMENT_SET_NO": 999, "REV_AT_EPOCH": 49468, "BSTAR": 8.5774e-05, "MEAN_MOTION_DOT": 4.93e-06, "MEAN_MOTION_DDOT": 0}, "tle": {"line1": "1 41785U 16059C   25357.20544676  .00000493  00000+0  85774-4 0  9992", "line2": "2 41785  97.7803   8.5430 0010775  74.0306 286.2089 14.72085790494680"}}, "geometry": {"type": "Point", "coordinates": [4.792336152360876, 27.121663937183026]}}, {"type": "Feature", "properties": {"norad_id": 41787, "name": "PATHFINDER 1", "group": "resource", "lat": -75.34408620883056, "lon": 31.430605368187425, "alt_km": 689.1503930149065, "timestamp": "2025-12-23T11:34:47.839399+00:00", "meta": {"OBJECT_NAME": "PATHFINDER 1", "OBJECT_ID": "2016-059E", "EPOCH": "2025-12-22T22:50:24.395136", "MEAN_MOTION": 14.6733842, "ECCENTRICITY": 0.0029719, "INCLINATION": 97.8137, "RA_OF_ASC_NODE": 359.2514, "ARG_OF_PERICENTER": 50.0679, "MEAN_ANOMALY": 310.3131, "EPHEMERIS_TYPE": 0, "CLASSIFICATION_TYPE": "U", "NORAD_CAT_ID": 41787, "ELEMENT_SET_NO": 999, "REV_AT_EPOCH": 49386, "BSTAR": 0.00014467, "MEAN_MOTION_DOT": 7.76e-06, "MEAN_MOTION_DDOT": 0}, "tle": {"line1": "1 41787U 16059E   25356.95167124  .00000776  00000+0  14467-3 0  9998", "line2": "2 41787  97.8137 359.2514 0029719  50.0679 310.3131 14.67338420493868"}}, "geometry": {"type": "Point", "coordinates": [31.430605368187425, -75.34408620883056]}}, {"type": "Feature", "properties": {"norad_id": 41790, "name": "SCATSAT 1", "group": "resource", "lat": 3.7280793432954713, "lon": 53.75158949638926, "alt_km": 635.0113204102418, "timestamp": "2025-12-23T11:34:47.839408+00:00", "meta": {"OBJECT_NAME": "SCATSAT 1", "OBJECT_ID": "2016-059H", "EPOCH": "2025-12-22T14:27:15.854112", "MEAN_MOTION": 14.78966851, "ECCENTRICITY": 0.00564639, "INCLINATION": 98.1449, "RA_OF_ASC_NODE": 53.3952, "ARG_OF_PERICENTER": 96.9229, "MEAN_ANOMALY": 263.8409, "EPHEMERIS_TYPE": 0, "CLASSIFICATION_TYPE": "U", "NORAD_CAT_ID": 41790, "ELEMENT_SET_NO": 999, "REV_AT_EPOCH": 7548, "BSTAR": 0.00017791286, "MEAN_MOTION_DOT": 1.292e-05, "MEAN_MOTION_DDOT": 0}, "tle": {"line1": "1 41790U 16059H   25356.60226683  .00001292  00000+0  17791-3 0  9997", "line2": "2 41790  98.1449  53.3952 0056463  96.9229 263.8409 14.78966851 75487"}}, "geometry": {"type": "Point", "coordinates": [53.75158949638926, 3.7280793432954713]}}, {"type": "Feature", "properties": {"norad_id": 41875, "name": "GOKTURK 1A", "group": "resource", "lat": -4.789016828192198, "lon": 69.01715902829045, "alt_km": 687.9961407602632, "timestamp": "2025-12-23T11:34:47.839417+00:00", "meta": {"OBJECT_NAME": "GOKTURK 1A", "OBJECT_ID": "2016-073A", "EPOCH": "2025-12-23T04:10:17.696352", "MEAN_MOTION": 14.62791887, "ECCENTRICITY": 0.0001288, "INCLINATION": 98.1432, "RA_OF_ASC_NODE": 249.4, "ARG_OF_PERICENTER": 80.9928, "MEAN_ANOMALY": 279.1419, "EPHEMERIS_TYPE": 0, "CLASSIFICATION_TYPE": "U", "NORAD_CAT_ID": 41875, "ELEMENT_SET_NO": 999, "REV_AT_EPOCH": 48309, "BSTAR": 0.00016861, "MEAN_MOTION_DOT": 8.13e-06, "MEAN_MOTION_DDOT": 0}, "tle": {"line1": "1 41875U 16073A   25357.17381593  .00000813  00000+0  16861-3 0  9997", "line2": "2 41875  98.1432 249.4000 0001288  80.9928 279.1419 14.62791887483098"}}, "geometry": {"type": "Point", "coordinates": [69.01715902829045, -4.789016828192198]}}, {"type": "Feature", "properties": {"norad_id": 41877, "name": "RESOURCESAT-2A", "group": "resource", "lat": 79.11942542003382, "lon": 13.80732359805652, "alt_km": 813.1669826534344, "timestamp": "2025-12-23T11:34:47.839426+00:00", "meta": {"OBJECT_NAME": "RESOURCESAT-2A", "OBJECT_ID": "2016-074A", "EPOCH": "2025-12-23T04:25:53.684832", "MEAN_MOTION": 14.21604131, "ECCENTRICITY": 0.0001557, "INCLINATION": 98.7746, "RA_OF_ASC_NODE": 66.9797, "ARG_OF_PERICENTER": 207.5592, "MEAN_ANOMALY": 152.5503, "EPHEMERIS_TYPE": 0, "CLASSIFICATION_TYPE": "U", "NORAD_CAT_ID": 41877, "ELEMENT_SET_NO": 999, "REV_AT_EPOCH": 46929, "BSTAR": 0.00013406, "MEAN_MOTION_DOT": 2.5e-06, "MEAN_MOTION_DDOT": 0}, "tle": {"line1": "1 41877U 16074A   25357.18464913  .00000250  00000+0  13406-3 0  9996", "line2": "2 41877  98.7746  66.9797 0001557 207.5592 152.5503 14.21604131469296"}}, "geometry": {"type": "Point", "coordinates": [13.80732359805652, 79.11942542003382]}}, {"type": "Feature", "properties": {"norad_id": 41948, "name": "CARTOSAT-2D", "group": "resource", "lat": -78.71864183464187, "lon": -166.09270110317044, "alt_km": 518.4046191200896, "timestamp": "2025-12-23T11:34:47.839435+00:00", "meta": {"OBJECT_NAME": "CARTOSAT-2D", "OBJECT_ID": "2017-008A", "EPOCH": "2025-12-23T04:06:33.865056", "MEAN_MOTION": 15.19165618, "ECCENTRICITY": 0.0005181, "INCLINATION": 97.4374, "RA_OF_ASC_NODE": 54.5098, "ARG_OF_PERICENTER": 123.5007, "MEAN_ANOMALY": 236.6723, "EPHEMERIS_TYPE": 0, "CLASSIFICATION_TYPE": "U", "NORAD_CAT_ID": 41948, "ELEMENT_SET_NO": 999, "REV_AT_EPOCH": 49085, "BSTAR": 0.0002436, "MEAN_MOTION_DOT": 5.056e-05, "MEAN_MOTION_DDOT": 0}, "tle": {"line1": "1 41948U 17008A   25357.17122529  .00005056  00000+0  24360-3 0  9996", "line2": "2 41948  97.4374  54.5098 0005181 123.5007 236.6723 15.19165618490854"}}, "geometry": {"type": "Point", "coordinates": [-166.09270110317044, -78.71864183464187]}}, {"type": "Feature", "properties": {"norad_id": 42063, "name": "SENTINEL-2B", "group": "resource", "lat": 47.045898360570234, "lon": 60.45551156665013, "alt_km": 784.2097558016821, "timestamp": "2025-12-23T11:34:47.839444+00:00", "meta": {"OBJECT_NAME": "SENTINEL-2B", "OBJECT_ID": "2017-013A", "EPOCH": "2025-12-23T04:38:39.431616", "MEAN_MOTION": 14.30814365, "ECCENTRICITY": 0.0001186, "INCLINATION": 98.5707, "RA_OF_ASC_NODE": 69.4927, "ARG_OF_PERICENTER": 92.3157, "MEAN_ANOMALY": 267.8161, "EPHEMERIS_TYPE": 0, "CLASSIFICATION_TYPE": "U", "NORAD_CAT_ID": 42063, "ELEMENT_SET_NO": 999, "REV_AT_EPOCH": 45947, "BSTAR": 4.0402e-05, "MEAN_MOTION_DOT": 6.2e-07, "MEAN_MOTION_DDOT": 0}, "tle": {"line1": "1 42063U 17013A   25357.19351194  .00000062  00000+0  40402-4 0  9993", "line2": "2 42063  98.5707  69.4927 0001186  92.3157 267.8161 14.30814365459478"}}, "geometry": {"type": "Point", "coordinates": [60.45551156665013, 47.045898360570234]}}, {"type": "Feature", "properties": {"norad_id": 42767, "name": "CARTOSAT-2E", "group": "resource", "lat": 9.115206625010373, "lon": -123.86778682566485, "alt_km": 507.94160376963464, "timestamp": "2025-12-23T11:34:47.839453+00:00", "meta": {"OBJECT_NAME": "CARTOSAT-2E", "OBJECT_ID": "2017-036C", "EPOCH": "2025-12-23T04:30:29.642112", "MEAN_MOTION": 15.19295641, "ECCENTRICITY": 0.0002818, "INCLINATION": 97.4537, "RA_OF_ASC_NODE": 54.6378, "ARG_OF_PERICENTER": 190.3023, "MEAN_ANOMALY": 169.8154, "EPHEMERIS_TYPE": 0, "CLASSIFICATION_TYPE": "U", "NORAD_CAT_ID": 42767, "ELEMENT_SET_NO": 999, "REV_AT_EPOCH": 47142, "BSTAR": 0.00024667, "MEAN_MOTION_DOT": 5.138e-05, "MEAN_MOTION_DDOT": 0}, "tle": {"line1": "1 42767U 17036C   25357.18784308  .00005138  00000+0  24667-3 0  9998", "line2": "2 42767  97.4537  54.6378 0002818 190.3023 169.8154 15.19295641471428"}}, "geometry": {"type": "Point", "coordinates": [-123.86778682566485, 9.115206625010373]}}, {"type": "Feature", "properties": {"norad_id": 42920, "name": "FORMOSAT-5", "group": "resource", "lat": 74.44244144009474, "lon": -77.03195385845262, "alt_km": 722.6604144450821, "timestamp": "2025-12-23T11:34:47.839462+00:00", "meta": {"OBJECT_NAME": "FORMOSAT-5", "OBJECT_ID": "2017-049A", "EPOCH": "2025-12-23T02:49:44.069088", "MEAN_MOTION": 14.5076633, "ECCENTRICITY": 0.0009823, "INCLINATION": 98.244, "RA_OF_ASC_NODE": 71.2281, "ARG_OF_PERICENTER": 266.0431, "MEAN_ANOMALY": 93.9641, "EPHEMERIS_TYPE": 0, "CLASSIFICATION_TYPE": "U", "NORAD_CAT_ID": 42920, "ELEMENT_SET_NO": 999, "REV_AT_EPOCH": 44114, "BSTAR": 6.7781e-05, "MEAN_MOTION_DOT": 2.23e-06, "MEAN_MOTION_DDOT": 0}, "tle": {"line1": "1 42920U 17049A   25357.11787117  .00000223  00000+0  67781-4 0  9992", "line2": "2 42920  98.2440  71.2281 0009823 266.0431  93.9641 14.50766330441142"}}, "geometry": {"type": "Point", "coordinates": [-77.03195385845262, 74.44244144009474]}}, {"type": "Feature", "properties": {"norad_id": 42969, "name": "SENTINEL-5P", "group": "resource", "lat": 9.057655760492082, "lon": -65.43984713034021, "alt_km": 828.5101526223307, "timestamp": "2025-12-23T11:34:47.839471+00:00", "meta": {"OBJECT_NAME": "SENTINEL-5P", "OBJECT_ID": "2017-064A", "EPOCH": "2025-12-22T20:18:42.950880", "MEAN_MOTION": 14.19519853, "ECCENTRICITY": 0.00010225, "INCLINATION": 98.78, "RA_OF_ASC_NODE": 295.3414, "ARG_OF_PERICENTER": 91.3711, "MEAN_ANOMALY": 268.7582, "EPHEMERIS_TYPE": 0, "CLASSIFICATION_TYPE": "U", "NORAD_CAT_ID": 42969, "ELEMENT_SET_NO": 999, "REV_AT_EPOCH": 42454, "BSTAR": 5.1443237e-05, "MEAN_MOTION_DOT": 6.4e-07, "MEAN_MOTION_DDOT": 0}, "tle": {"line1": "1 42969U 17064A   25356.84633045  .00000064  00000+0  51443-4 0  9992", "line2": "2 42969  98.7800 295.3414 0001022  91.3711 268.7582 14.19519853424542"}}, "geometry": {"type": "Point", "coordinates": [-65.43984713034021, 9.057655760492082]}}]}